[{"id":"62483","name":"THURAYA-4","tle1":"1 62483U 25001A   26176.17732737  .00000149  00000+0  00000+0 0  9992","tle2":"2 62483   0.0269  69.4729 0000151 343.0662 328.9298  1.00274366  4251"},{"id":"62485","name":"SHIJIAN-25 (SJ-25)","tle1":"1 62485U 25002A   26175.77890949 -.00000345  00000+0  00000+0 0  9999","tle2":"2 62485   5.1315  61.1226 0051310 174.7765  84.6324  1.00281606  5430"},{"id":"62804","name":"TJS-14","tle1":"1 62804U 25017A   26176.31469626  .00000126  00000+0  00000+0 0  9991","tle2":"2 62804   0.7637 296.1961 0001138 297.1395 171.8277  1.00268557  5358"},{"id":"62852","name":"SPAINSAT NG I","tle1":"1 62852U 25021A   26175.53265336  .00000159  00000+0  00000+0 0  9990","tle2":"2 62852   0.0160 358.9479 0000199  59.3861  75.0858  1.00270272  4062"},{"id":"62876","name":"QZS-6 (MICHIBIKI-6)","tle1":"1 62876U 25023A   26176.16919925 -.00000224  00000+0  00000+0 0  9992","tle2":"2 62876   0.0581 280.0946 0001967 187.0933 317.5365  1.00273180  5027"},{"id":"63075","name":"ZHONGXING-10R","tle1":"1 63075U 25036A   26175.46457772 -.00000344  00000+0  00000+0 0  9990","tle2":"2 63075   0.0714 252.4459 0004096 246.7798  51.1432  1.00269441  5039"},{"id":"63157","name":"TJS-15","tle1":"1 63157U 25045A   26175.75947044 -.00000256  00000+0  00000+0 0  9991","tle2":"2 63157   0.3019  85.5429 0004628 302.3509 252.7849  1.00269476  4839"},{"id":"63361","name":"TIANLIAN 2-04","tle1":"1 63361U 25062A   26176.32682965 -.00000121  00000+0  00000+0 0  9990","tle2":"2 63361   4.3533 274.3199 0031224  10.2957 186.5740  1.00272101  4683"},{"id":"63397","name":"TJS-16","tle1":"1 63397U 25064A   26175.77792285 -.00000097  00000+0  00000+0 0  9998","tle2":"2 63397   1.1181  81.4343 0003269 297.0884 335.0687  1.00272190  4461"},{"id":"63524","name":"TJS-17","tle1":"1 63524U 25073A   26175.71562270 -.00000061  00000+0  00000+0 0  9994","tle2":"2 63524   1.0839  82.6517 0002062 309.1303 303.2742  1.00273436  4361"},{"id":"63662","name":"TIANLIAN 2-05","tle1":"1 63662U 25084A   26175.81602639  .00000137  00000+0  00000+0 0  9997","tle2":"2 63662   4.4314 279.7471 0003382 153.9556 153.4019  1.00274890  4455"},{"id":"63924","name":"TJS-19","tle1":"1 63924U 25097A   26175.78098891 -.00000266  00000+0  00000+0 0  9991","tle2":"2 63924   3.2730 317.5741 0002968 241.0685 136.6877  1.00274749  4220"},{"id":"64062","name":"CHINASAT 3B","tle1":"1 64062U 25106A   26176.14489052 -.00000035  00000+0  00000+0 0  9994","tle2":"2 64062   0.0426 158.0458 0003563 328.0058   6.6927  1.00272151  4144"},{"id":"64290","name":"SXM-10","tle1":"1 64290U 25122A   26175.71773956 -.00000008  00000+0  00000+0 0  9996","tle2":"2 64290   0.0207  35.0737 0001809 336.6407  43.3689  1.00271244  3753"},{"id":"64467","name":"COSMOS 2589","tle1":"1 64467U 25131A   26175.67170471 -.00000282  00000+0  00000+0 0  9994","tle2":"2 64467   0.0431  97.2859 0001044 347.1395 168.1766  1.00270569  3635"},{"id":"64470","name":"CHINASAT 9C","tle1":"1 64470U 25132A   26176.16919925 -.00000238  00000+0  00000+0 0  9990","tle2":"2 64470   0.0305  95.8722 0003327 354.9134 335.6419  1.00272514  4229"},{"id":"64723","name":"MTG-S1","tle1":"1 64723U 25143A   26175.74071355  .00000023  00000+0  00000+0 0  9993","tle2":"2 64723   0.5970 340.6178 0000585 288.6722 269.7793  1.00400949  3493"},{"id":"64784","name":"DROR 1","tle1":"1 64784U 25148A   26176.23516927 -.00000025  00000+0  00000+0 0  9992","tle2":"2 64784   0.0148 309.5260 0002755  87.6756 316.8140  1.00271598  3376"},{"id":"65486","name":"SHIYAN-29","tle1":"1 65486U 25196A   26175.65659755 -.00000281  00000+0  00000+0 0  9991","tle2":"2 65486  28.8296  18.4412 0012596 175.5410  50.0372  1.00283963  2957"},{"id":"65588","name":"NUSANTARA LIMA (NUSANT*)","tle1":"1 65588U 25205A   26176.04830759 -.00000348  00000+0  00000+0 0  9998","tle2":"2 65588   0.0367 148.1537 0000315 353.9981 261.2923  1.00269667  2796"},{"id":"66142","name":"TJS-20","tle1":"1 66142U 25238A   26175.96698457  .00000037  00000+0  00000+0 0  9992","tle2":"2 66142   5.4515 299.5256 0004587 162.2869 221.8174  1.00269888  2411"},{"id":"66311","name":"CMS-03 (GSAT-7R)","tle1":"1 66311U 25249B   26176.18313407 -.00000067  00000+0  00000+0 0  9990","tle2":"2 66311   0.0262 271.9157 0002091 165.4692 335.8427  1.00270596  2426"},{"id":"66454","name":"VIASAT-3 F2","tle1":"1 66454U 25261A   26175.82000622 -.00000225  00000+0  00000+0 0  9990","tle2":"2 66454   0.0049 139.4651 0000235  46.4657 303.2621  1.00272510  2873"},{"id":"66549","name":"SHIJIAN-28 (SJ-28)","tle1":"1 66549U 25277A   26176.04908759 -.00000346  00000+0  00000+0 0  9999","tle2":"2 66549   4.5176 272.0053 0000856  44.7570  90.9334  1.00274094  2232"},{"id":"66990","name":"TJS-22","tle1":"1 66990U 25290A   26175.85530808  .00000004  00000+0  00000+0 0  9998","tle2":"2 66990   1.5104 286.6522 0002246 322.3814  38.3370  1.00272293  2104"},{"id":"67226","name":"TJS-23","tle1":"1 67226U 25306A   26175.58161637  .00000026  00000+0  00000+0 0  9993","tle2":"2 67226   5.5714 297.4484 0004773 179.8475 180.2975  1.00267423  1960"},{"id":"67246","name":"FENGYUN 4C","tle1":"1 67246U 25312A   26175.83837260 -.00000314  00000+0  00000+0 0  9993","tle2":"2 67246   0.0547 153.4899 0000564   0.0968 194.2183  1.00272162  1853"},{"id":"67302","name":"SHIJIAN-29A (SJ-29A)","tle1":"1 67302U 25315A   26176.30441641 -.00000059  00000+0  00000+0 0  9992","tle2":"2 67302   3.4187  94.9158 0003512  22.8071 338.4606  1.00271034  1706"},{"id":"67403","name":"SHIJIAN-29B (SJ-29B)","tle1":"1 67403U 25315C   26175.96915124 -.00000060  00000+0  00000+0 0  9999","tle2":"2 67403   3.4168  94.9169 0004351  34.9381 205.3365  1.00270682  1767"},{"id":"67756","name":"ELEKTRO-L 5","tle1":"1 67756U 26028A   26176.02993184 -.00000088  00000+0  00000+0 0  9992","tle2":"2 67756   0.2379 314.8468 0001768 182.3511 222.8118  1.00272190  1334"},{"id":"67757","name":"JAM-E JAM 1","tle1":"1 67757U 26028B   26176.21850447  .00000166  00000+0  00000+0 0  9994","tle2":"2 67757   0.2429 304.9843 0000956 275.4938 165.6840  1.00280503  1202"},{"id":"68126","name":"ECHOSTAR 25","tle1":"1 68126U 26045A   26176.14672824 -.00000047  00000+0  00000+0 0  9996","tle2":"2 68126   0.0150   8.2114 0001824  79.6602 128.2301  1.00271511  1075"}]